STARLINK-3131           
1 49427U 21104V   26068.67240351  .00000401  00000+0  43279-4 0  9997
2 49427  53.2176 229.2092 0001326 100.5072 259.6070 15.08838642238631
STARLINK-5895           
1 55964U 23037BC  26068.93316413  .00010921  00000+0  72850-3 0  9993
2 55964  69.9972 260.0280 0004986 264.4993  95.5602 15.07243555164606
